[{"OBJECT_NAME":"STARLINK-3277","OBJECT_ID":"2021-125AC","EPOCH":"2026-03-09T17:07:47.659584","MEAN_MOTION":15.08839756,"ECCENTRICITY":0.00012546,"INCLINATION":53.2164,"RA_OF_ASC_NODE":248.8572,"ARG_OF_PERICENTER":103.0431,"MEAN_ANOMALY":257.0701,"EPHEMERIS_TYPE":0,"CLASSIFICATION_TYPE":"U","NORAD_CAT_ID":50182,"ELEMENT_SET_NO":999,"REV_AT_EPOCH":23664,"BSTAR":3.5185108e-5,"MEAN_MOTION_DOT":2.72e-6,"MEAN_MOTION_DDOT":0},{"OBJECT_NAME":"RAISE-4","OBJECT_ID":"2025-297B","EPOCH":"2026-03-09T23:25:57.718272","MEAN_MOTION":15.08174958,"ECCENTRICITY":0.00127133,"INCLINATION":97.4953,"RA_OF_ASC_NODE":219.2703,"ARG_OF_PERICENTER":22.7159,"MEAN_ANOMALY":337.4629,"EPHEMERIS_TYPE":0,"CLASSIFICATION_TYPE":"U","NORAD_CAT_ID":67073,"ELEMENT_SET_NO":999,"REV_AT_EPOCH":1293,"BSTAR":0.00037087145,"MEAN_MOTION_DOT":5.682e-5,"MEAN_MOTION_DDOT":0}]
